STARLINK-35851          
1 66356U 25254J   25334.43257784  .00149812  00000+0  10072-2 0  9997
2 66356  53.1584 336.0206 0001150 100.2153 259.8996 15.74234085  3744
STARLINK-35817          
1 66357U 25254K   25334.43223892  .00184409  00000+0  12329-2 0  9999
2 66357  53.1582 336.0182 0001131  72.8461 287.2683 15.74247568  3749
STARLINK-35807          
1 66358U 25254L   25334.43190044  .00224046  00000+0  14890-2 0  9999
2 66358  53.1582 336.0156 0000996  94.0948 266.0185 15.74261771  3749
STARLINK-35805          
1 66359U 25254M   25334.43156175  .00263639  00000+0  17415-2 0  9994
2 66359  53.1581 336.0139 0001421  71.9790 288.1385 15.74284307  4886
STARLINK-35823          
1 66360U 25254N   25334.43088544  .00153156  00000+0  10285-2 0  9990
2 66360  53.1581 336.0089 0001121  91.3018 268.8130 15.74247136  3744
STARLINK-35813          
1 66361U 25254P   25334.43122411  .00153078  00000+0  10283-2 0  9994
2 66361  53.1582 336.0117 0001486  96.5926 263.5263 15.74241714  3742
STARLINK-35822          
1 66362U 25254Q   25334.49369784  .00264848  00000+0  17494-2 0  9996
2 66362  53.1580 335.6894 0001334  97.6825 262.4346 15.74282026  3752
STARLINK-35806          
1 66363U 25254R   25334.43054847  .00203820  00000+0  13584-2 0  9991
2 66363  53.1582 336.0063 0001256  96.4694 263.6468 15.74259723  3747
STARLINK-35797          
1 66364U 25254S   25334.42987281  .00232112  00000+0  15407-2 0  9990
2 66364  53.1578 336.0016 0001280  82.5673 277.5493 15.74267353  3741
STARLINK-35827          
1 66365U 25254T   25334.42919712  .00212549  00000+0  14153-2 0  9994
2 66365  53.1579 335.9976 0001273  88.8106 271.3060 15.74253979  3749
STARLINK-35845          
1 66366U 25254U   25334.42953595  .00170550  00000+0  11430-2 0  9992
2 66366  53.1579 335.9993 0001234  91.4934 268.6227 15.74238098  3744
STARLINK-35846          
1 66367U 25254V   25334.42885870  .00165073  00000+0  11070-2 0  9997
2 66367  53.1579 335.9944 0001040  71.7233 288.3900 15.74239650  3741
