CCSDS_OMM_VERS = 2.0
CREATION_DATE  = 
ORIGINATOR     = 

OBJECT_NAME    = STARLINK-35851
OBJECT_ID      = 2025-254J
CENTER_NAME    = EARTH
REF_FRAME      = TEME
TIME_SYSTEM    = UTC
MEAN_ELEMENT_THEORY = SGP/SGP4

EPOCH          = 2025-11-30T10:22:54.725376
MEAN_MOTION    = 15.74234085
ECCENTRICITY   = .000115
INCLINATION    = 53.1584
RA_OF_ASC_NODE = 336.0206
ARG_OF_PERICENTER = 100.2153
MEAN_ANOMALY   = 259.8996

EPHEMERIS_TYPE = 0
CLASSIFICATION_TYPE = U
NORAD_CAT_ID   = 66356
ELEMENT_SET_NO = 999
REV_AT_EPOCH   = 374
BSTAR          = .10072E-2
MEAN_MOTION_DOT = .149812E-2
MEAN_MOTION_DDOT = 0

CCSDS_OMM_VERS = 2.0
CREATION_DATE  = 
ORIGINATOR     = 

OBJECT_NAME    = STARLINK-35817
OBJECT_ID      = 2025-254K
CENTER_NAME    = EARTH
REF_FRAME      = TEME
TIME_SYSTEM    = UTC
MEAN_ELEMENT_THEORY = SGP/SGP4

EPOCH          = 2025-11-30T10:22:25.442688
MEAN_MOTION    = 15.74247568
ECCENTRICITY   = .0001131
INCLINATION    = 53.1582
RA_OF_ASC_NODE = 336.0182
ARG_OF_PERICENTER = 72.8461
MEAN_ANOMALY   = 287.2683

EPHEMERIS_TYPE = 0
CLASSIFICATION_TYPE = U
NORAD_CAT_ID   = 66357
ELEMENT_SET_NO = 999
REV_AT_EPOCH   = 374
BSTAR          = .12329E-2
MEAN_MOTION_DOT = .184409E-2
MEAN_MOTION_DDOT = 0

CCSDS_OMM_VERS = 2.0
CREATION_DATE  = 
ORIGINATOR     = 

OBJECT_NAME    = STARLINK-35807
OBJECT_ID      = 2025-254L
CENTER_NAME    = EARTH
REF_FRAME      = TEME
TIME_SYSTEM    = UTC
MEAN_ELEMENT_THEORY = SGP/SGP4

EPOCH          = 2025-11-30T10:21:56.198016
MEAN_MOTION    = 15.74261771
ECCENTRICITY   = .0000996
INCLINATION    = 53.1582
RA_OF_ASC_NODE = 336.0156
ARG_OF_PERICENTER = 94.0948
MEAN_ANOMALY   = 266.0185

EPHEMERIS_TYPE = 0
CLASSIFICATION_TYPE = U
NORAD_CAT_ID   = 66358
ELEMENT_SET_NO = 999
REV_AT_EPOCH   = 374
BSTAR          = .1489E-2
MEAN_MOTION_DOT = .224046E-2
MEAN_MOTION_DDOT = 0

CCSDS_OMM_VERS = 2.0
CREATION_DATE  = 
ORIGINATOR     = 

OBJECT_NAME    = STARLINK-35805
OBJECT_ID      = 2025-254M
CENTER_NAME    = EARTH
REF_FRAME      = TEME
TIME_SYSTEM    = UTC
MEAN_ELEMENT_THEORY = SGP/SGP4

EPOCH          = 2025-11-30T10:21:26.935200
MEAN_MOTION    = 15.74284307
ECCENTRICITY   = .0001421
INCLINATION    = 53.1581
RA_OF_ASC_NODE = 336.0139
ARG_OF_PERICENTER = 71.9790
MEAN_ANOMALY   = 288.1385

EPHEMERIS_TYPE = 0
CLASSIFICATION_TYPE = U
NORAD_CAT_ID   = 66359
ELEMENT_SET_NO = 999
REV_AT_EPOCH   = 488
BSTAR          = .17415E-2
MEAN_MOTION_DOT = .263639E-2
MEAN_MOTION_DDOT = 0

CCSDS_OMM_VERS = 2.0
CREATION_DATE  = 
ORIGINATOR     = 

OBJECT_NAME    = STARLINK-35823
OBJECT_ID      = 2025-254N
CENTER_NAME    = EARTH
REF_FRAME      = TEME
TIME_SYSTEM    = UTC
MEAN_ELEMENT_THEORY = SGP/SGP4

EPOCH          = 2025-11-30T10:20:28.502016
MEAN_MOTION    = 15.74247136
ECCENTRICITY   = .0001121
INCLINATION    = 53.1581
RA_OF_ASC_NODE = 336.0089
ARG_OF_PERICENTER = 91.3018
MEAN_ANOMALY   = 268.8130

EPHEMERIS_TYPE = 0
CLASSIFICATION_TYPE = U
NORAD_CAT_ID   = 66360
ELEMENT_SET_NO = 999
REV_AT_EPOCH   = 374
BSTAR          = .10285E-2
MEAN_MOTION_DOT = .153156E-2
MEAN_MOTION_DDOT = 0

CCSDS_OMM_VERS = 2.0
CREATION_DATE  = 
ORIGINATOR     = 

OBJECT_NAME    = STARLINK-35813
OBJECT_ID      = 2025-254P
CENTER_NAME    = EARTH
REF_FRAME      = TEME
TIME_SYSTEM    = UTC
MEAN_ELEMENT_THEORY = SGP/SGP4

EPOCH          = 2025-11-30T10:20:57.763104
MEAN_MOTION    = 15.74241714
ECCENTRICITY   = .0001486
INCLINATION    = 53.1582
RA_OF_ASC_NODE = 336.0117
ARG_OF_PERICENTER = 96.5926
MEAN_ANOMALY   = 263.5263

EPHEMERIS_TYPE = 0
CLASSIFICATION_TYPE = U
NORAD_CAT_ID   = 66361
ELEMENT_SET_NO = 999
REV_AT_EPOCH   = 374
BSTAR          = .10283E-2
MEAN_MOTION_DOT = .153078E-2
MEAN_MOTION_DDOT = 0

CCSDS_OMM_VERS = 2.0
CREATION_DATE  = 
ORIGINATOR     = 

OBJECT_NAME    = STARLINK-35822
OBJECT_ID      = 2025-254Q
CENTER_NAME    = EARTH
REF_FRAME      = TEME
TIME_SYSTEM    = UTC
MEAN_ELEMENT_THEORY = SGP/SGP4

EPOCH          = 2025-11-30T11:50:55.493376
MEAN_MOTION    = 15.74282026
ECCENTRICITY   = .0001334
INCLINATION    = 53.1580
RA_OF_ASC_NODE = 335.6894
ARG_OF_PERICENTER = 97.6825
MEAN_ANOMALY   = 262.4346

EPHEMERIS_TYPE = 0
CLASSIFICATION_TYPE = U
NORAD_CAT_ID   = 66362
ELEMENT_SET_NO = 999
REV_AT_EPOCH   = 375
BSTAR          = .17494E-2
MEAN_MOTION_DOT = .264848E-2
MEAN_MOTION_DDOT = 0

CCSDS_OMM_VERS = 2.0
CREATION_DATE  = 
ORIGINATOR     = 

OBJECT_NAME    = STARLINK-35806
OBJECT_ID      = 2025-254R
CENTER_NAME    = EARTH
REF_FRAME      = TEME
TIME_SYSTEM    = UTC
MEAN_ELEMENT_THEORY = SGP/SGP4

EPOCH          = 2025-11-30T10:19:59.387808
MEAN_MOTION    = 15.74259723
ECCENTRICITY   = .0001256
INCLINATION    = 53.1582
RA_OF_ASC_NODE = 336.0063
ARG_OF_PERICENTER = 96.4694
MEAN_ANOMALY   = 263.6468

EPHEMERIS_TYPE = 0
CLASSIFICATION_TYPE = U
NORAD_CAT_ID   = 66363
ELEMENT_SET_NO = 999
REV_AT_EPOCH   = 374
BSTAR          = .13584E-2
MEAN_MOTION_DOT = .20382E-2
MEAN_MOTION_DDOT = 0

CCSDS_OMM_VERS = 2.0
CREATION_DATE  = 
ORIGINATOR     = 

OBJECT_NAME    = STARLINK-35797
OBJECT_ID      = 2025-254S
CENTER_NAME    = EARTH
REF_FRAME      = TEME
TIME_SYSTEM    = UTC
MEAN_ELEMENT_THEORY = SGP/SGP4

EPOCH          = 2025-11-30T10:19:01.010784
MEAN_MOTION    = 15.74267353
ECCENTRICITY   = .000128
INCLINATION    = 53.1578
RA_OF_ASC_NODE = 336.0016
ARG_OF_PERICENTER = 82.5673
MEAN_ANOMALY   = 277.5493

EPHEMERIS_TYPE = 0
CLASSIFICATION_TYPE = U
NORAD_CAT_ID   = 66364
ELEMENT_SET_NO = 999
REV_AT_EPOCH   = 374
BSTAR          = .15407E-2
MEAN_MOTION_DOT = .232112E-2
MEAN_MOTION_DDOT = 0

CCSDS_OMM_VERS = 2.0
CREATION_DATE  = 
ORIGINATOR     = 

OBJECT_NAME    = STARLINK-35827
OBJECT_ID      = 2025-254T
CENTER_NAME    = EARTH
REF_FRAME      = TEME
TIME_SYSTEM    = UTC
MEAN_ELEMENT_THEORY = SGP/SGP4

EPOCH          = 2025-11-30T10:18:02.631168
MEAN_MOTION    = 15.74253979
ECCENTRICITY   = .0001273
INCLINATION    = 53.1579
RA_OF_ASC_NODE = 335.9976
ARG_OF_PERICENTER = 88.8106
MEAN_ANOMALY   = 271.3060

EPHEMERIS_TYPE = 0
CLASSIFICATION_TYPE = U
NORAD_CAT_ID   = 66365
ELEMENT_SET_NO = 999
REV_AT_EPOCH   = 374
BSTAR          = .14153E-2
MEAN_MOTION_DOT = .212549E-2
MEAN_MOTION_DDOT = 0

CCSDS_OMM_VERS = 2.0
CREATION_DATE  = 
ORIGINATOR     = 

OBJECT_NAME    = STARLINK-35845
OBJECT_ID      = 2025-254U
CENTER_NAME    = EARTH
REF_FRAME      = TEME
TIME_SYSTEM    = UTC
MEAN_ELEMENT_THEORY = SGP/SGP4

EPOCH          = 2025-11-30T10:18:31.906080
MEAN_MOTION    = 15.74238098
ECCENTRICITY   = .0001234
INCLINATION    = 53.1579
RA_OF_ASC_NODE = 335.9993
ARG_OF_PERICENTER = 91.4934
MEAN_ANOMALY   = 268.6227

EPHEMERIS_TYPE = 0
CLASSIFICATION_TYPE = U
NORAD_CAT_ID   = 66366
ELEMENT_SET_NO = 999
REV_AT_EPOCH   = 374
BSTAR          = .1143E-2
MEAN_MOTION_DOT = .17055E-2
MEAN_MOTION_DDOT = 0

CCSDS_OMM_VERS = 2.0
CREATION_DATE  = 
ORIGINATOR     = 

OBJECT_NAME    = STARLINK-35846
OBJECT_ID      = 2025-254V
CENTER_NAME    = EARTH
REF_FRAME      = TEME
TIME_SYSTEM    = UTC
MEAN_ELEMENT_THEORY = SGP/SGP4

EPOCH          = 2025-11-30T10:17:33.391680
MEAN_MOTION    = 15.74239650
ECCENTRICITY   = .000104
INCLINATION    = 53.1579
RA_OF_ASC_NODE = 335.9944
ARG_OF_PERICENTER = 71.7233
MEAN_ANOMALY   = 288.3900

EPHEMERIS_TYPE = 0
CLASSIFICATION_TYPE = U
NORAD_CAT_ID   = 66367
ELEMENT_SET_NO = 999
REV_AT_EPOCH   = 374
BSTAR          = .1107E-2
MEAN_MOTION_DOT = .165073E-2
MEAN_MOTION_DDOT = 0

